GLOBALSTAR M001         
1 25162U 98008A   25289.42995573 -.00000114  00000+0 -13433-3 0  9995
2 25162  52.0057 340.3353 0001726 143.9322 229.3148 12.38219768258739
GLOBALSTAR M004         
1 25163U 98008B   25289.58113078 -.00000044  00000+0  32989-3 0  9993
2 25163  52.0020  43.8030 0003231 187.1632 186.1248 12.63405916277039
GLOBALSTAR M002         
1 25164U 98008C   25289.33393397 -.00000039  00000+0  74275-3 0  9999
2 25164  52.0015 296.4502 0001553  11.6595 348.4261 11.61512718198146
GLOBALSTAR M003         
1 25165U 98008D   25290.19320810 -.00000205  00000+0 -12328-2 0  9992
2 25165  51.9933 190.6105 0007728 172.7120 354.6804 12.12054931248010
GLOBALSTAR M014         
1 25306U 98023A   25290.08950427 -.00000087  00000+0 -18245-3 0  9990
2 25306  51.9827 215.2141 0000266 198.4111 263.0099 11.65482595205388
GLOBALSTAR M006         
1 25307U 98023B   25290.16987911 -.00000043  00000+0  66485-3 0  9998
2 25307  51.9931 272.0442 0003247 332.7791 110.3470 11.58177199230961
GLOBALSTAR M015         
1 25308U 98023C   25289.49757421 -.00000049  00000+0  54732-3 0  9992
2 25308  51.9858  17.7478 0011955 291.2058  81.5882 11.48859434208029
GLOBALSTAR M008         
1 25309U 98023D   25290.19490682 -.00000065  00000+0  24821-3 0  9999
2 25309  51.9960 204.3209 0003413  70.4067  76.6063 12.36074335252939
